{
  "type": "FeatureCollection",
  "features": [
    {
      "type": "Feature",
      "properties": {
        "norad_id": 33612,
        "name": "FENGYUN 1C DEB",
        "group": "fengyun-1c-debris",
        "lat": -72.31325649520035,
        "lon": -2.408573030449397,
        "alt_km": 951.361552750378,
        "timestamp": "2025-12-26T19:22:39.193504+00:00",
        "meta_object_name": "FENGYUN 1C DEB",
        "meta_object_id": "1999-025DCV",
        "meta_epoch": "2025-12-13T20:28:43.869792",
        "meta_mean_motion": 14.04084486,
        "meta_eccentricity": 0.01112826,
        "meta_inclination": 98.5972,
        "meta_ra_of_asc_node": 317.0094,
        "meta_arg_of_pericenter": 105.6891,
        "meta_mean_anomaly": 255.6586,
        "meta_ephemeris_type": 0,
        "meta_classification_type": "U",
        "meta_norad_cat_id": 33612,
        "meta_element_set_no": 999,
        "meta_rev_at_epoch": 56689,
        "meta_bstar": 0.0022025481,
        "meta_mean_motion_dot": 3.646e-05,
        "meta_mean_motion_ddot": 0,
        "tle_line1": "1 33612U 99025DCV 25347.85328553  .00003646  00000+0  22025-2 0  9991",
        "tle_line2": "2 33612  98.5972 317.0094 0111282 105.6891 255.6586 14.04084486566896"
      },
      "geometry": {
        "type": "Point",
        "coordinates": [
          -2.408573030449397,
          -72.31325649520035
        ]
      }
    },
    {
      "type": "Feature",
      "properties": {
        "norad_id": 33613,
        "name": "FENGYUN 1C DEB",
        "group": "fengyun-1c-debris",
        "lat": 73.76795668371244,
        "lon": -75.70940026968107,
        "alt_km": 761.6882198689755,
        "timestamp": "2025-12-26T19:22:39.193514+00:00",
        "meta_object_name": "FENGYUN 1C DEB",
        "meta_object_id": "1999-025DCW",
        "meta_epoch": "2025-12-23T22:12:25.455168",
        "meta_mean_motion": 14.3330666,
        "meta_eccentricity": 0.0029742,
        "meta_inclination": 98.6954,
        "meta_ra_of_asc_node": 69.6839,
        "meta_arg_of_pericenter": 55.8226,
        "meta_mean_anomaly": 304.5771,
        "meta_ephemeris_type": 0,
        "meta_classification_type": "U",
        "meta_norad_cat_id": 33613,
        "meta_element_set_no": 999,
        "meta_rev_at_epoch": 64670,
        "meta_bstar": 0.00192,
        "meta_mean_motion_dot": 5.272e-05,
        "meta_mean_motion_ddot": 0,
        "tle_line1": "1 33613U 99025DCW 25357.92529462  .00005272  00000+0  19200-2 0  9991",
        "tle_line2": "2 33613  98.6954  69.6839 0029742  55.8226 304.5771 14.33306660646704"
      },
      "geometry": {
        "type": "Point",
        "coordinates": [
          -75.70940026968107,
          73.76795668371244
        ]
      }
    },
    {
      "type": "Feature",
      "properties": {
        "norad_id": 33618,
        "name": "FENGYUN 1C DEB",
        "group": "fengyun-1c-debris",
        "lat": 11.783584751487368,
        "lon": 86.80872318940887,
        "alt_km": 675.1243902549486,
        "timestamp": "2025-12-26T19:22:39.193524+00:00",
        "meta_object_name": "FENGYUN 1C DEB",
        "meta_object_id": "1999-025DDB",
        "meta_epoch": "2025-12-26T12:45:14.908320",
        "meta_mean_motion": 14.62259672,
        "meta_eccentricity": 0.01648738,
        "meta_inclination": 98.5292,
        "meta_ra_of_asc_node": 88.3178,
        "meta_arg_of_pericenter": 97.8781,
        "meta_mean_anomaly": 264.1169,
        "meta_ephemeris_type": 0,
        "meta_classification_type": "U",
        "meta_norad_cat_id": 33618,
        "meta_element_set_no": 999,
        "meta_rev_at_epoch": 96985,
        "meta_bstar": 0.00073717954,
        "meta_mean_motion_dot": 4.462e-05,
        "meta_mean_motion_ddot": 0,
        "tle_line1": "1 33618U 99025DDB 25360.53142255  .00004462  00000+0  73718-3 0  9993",
        "tle_line2": "2 33618  98.5292  88.3178 0164873  97.8781 264.1169 14.62259672969852"
      },
      "geometry": {
        "type": "Point",
        "coordinates": [
          86.80872318940887,
          11.783584751487368
        ]
      }
    },
    {
      "type": "Feature",
      "properties": {
        "norad_id": 33619,
        "name": "FENGYUN 1C DEB",
        "group": "fengyun-1c-debris",
        "lat": 25.211098748631862,
        "lon": -105.62186547423511,
        "alt_km": 863.6978084169696,
        "timestamp": "2025-12-26T19:22:39.193535+00:00",
        "meta_object_name": "FENGYUN 1C DEB",
        "meta_object_id": "1999-025DDC",
        "meta_epoch": "2025-12-22T11:19:13.450944",
        "meta_mean_motion": 14.17552951,
        "meta_eccentricity": 0.00502437,
        "meta_inclination": 98.8607,
        "meta_ra_of_asc_node": 65.8437,
        "meta_arg_of_pericenter": 17.8745,
        "meta_mean_anomaly": 342.4183,
        "meta_ephemeris_type": 0,
        "meta_classification_type": "U",
        "meta_norad_cat_id": 33619,
        "meta_element_set_no": 999,
        "meta_rev_at_epoch": 63762,
        "meta_bstar": 0.0012593794,
        "meta_mean_motion_dot": 2.545e-05,
        "meta_mean_motion_ddot": 0,
        "tle_line1": "1 33619U 99025DDC 25356.47168346  .00002545  00000+0  12594-2 0  9995",
        "tle_line2": "2 33619  98.8607  65.8437 0050243  17.8745 342.4183 14.17552951637620"
      },
      "geometry": {
        "type": "Point",
        "coordinates": [
          -105.62186547423511,
          25.211098748631862
        ]
      }
    },
    {
      "type": "Feature",
      "properties": {
        "norad_id": 33621,
        "name": "FENGYUN 1C DEB",
        "group": "fengyun-1c-debris",
        "lat": 20.996965095926292,
        "lon": 33.59586529308937,
        "alt_km": 837.2740771770668,
        "timestamp": "2025-12-26T19:22:39.193544+00:00",
        "meta_object_name": "FENGYUN 1C DEB",
        "meta_object_id": "1999-025DDE",
        "meta_epoch": "2025-12-10T20:17:14.702784",
        "meta_mean_motion": 14.19482835,
        "meta_eccentricity": 0.02846988,
        "meta_inclination": 98.1391,
        "meta_ra_of_asc_node": 195.7496,
        "meta_arg_of_pericenter": 300.0128,
        "meta_mean_anomaly": 57.3079,
        "meta_ephemeris_type": 0,
        "meta_classification_type": "U",
        "meta_norad_cat_id": 33621,
        "meta_element_set_no": 999,
        "meta_rev_at_epoch": 64217,
        "meta_bstar": 0.00099524636,
        "meta_mean_motion_dot": 3.099e-05,
        "meta_mean_motion_ddot": 0,
        "tle_line1": "1 33621U 99025DDE 25344.84530906  .00003099  00000+0  99525-3 0  9996",
        "tle_line2": "2 33621  98.1391 195.7496 0284698 300.0128  57.3079 14.19482835642176"
      },
      "geometry": {
        "type": "Point",
        "coordinates": [
          33.59586529308937,
          20.996965095926292
        ]
      }
    },
    {
      "type": "Feature",
      "properties": {
        "norad_id": 33625,
        "name": "FENGYUN 1C DEB",
        "group": "fengyun-1c-debris",
        "lat": -15.680390575330362,
        "lon": 114.49603362587125,
        "alt_km": 738.9158522361731,
        "timestamp": "2025-12-26T19:22:39.193557+00:00",
        "meta_object_name": "FENGYUN 1C DEB",
        "meta_object_id": "1999-025DDJ",
        "meta_epoch": "2025-12-22T18:29:10.172832",
        "meta_mean_motion": 14.61162738,
        "meta_eccentricity": 0.02254632,
        "meta_inclination": 98.6202,
        "meta_ra_of_asc_node": 107.8479,
        "meta_arg_of_pericenter": 104.3386,
        "meta_mean_anomaly": 258.2958,
        "meta_ephemeris_type": 0,
        "meta_classification_type": "U",
        "meta_norad_cat_id": 33625,
        "meta_element_set_no": 999,
        "meta_rev_at_epoch": 61537,
        "meta_bstar": 0.0010940286,
        "meta_mean_motion_dot": 7.684e-05,
        "meta_mean_motion_ddot": 0,
        "tle_line1": "1 33625U 99025DDJ 25356.77025663  .00007684  00000+0  10940-2 0  9991",
        "tle_line2": "2 33625  98.6202 107.8479 0225463 104.3386 258.2958 14.61162738615371"
      },
      "geometry": {
        "type": "Point",
        "coordinates": [
          114.49603362587125,
          -15.680390575330362
        ]
      }
    },
    {
      "type": "Feature",
      "properties": {
        "norad_id": 33630,
        "name": "FENGYUN 1C DEB",
        "group": "fengyun-1c-debris",
        "lat": 70.61819402862359,
        "lon": -47.88453935133401,
        "alt_km": 807.3675235267374,
        "timestamp": "2025-12-26T19:22:39.193567+00:00",
        "meta_object_name": "FENGYUN 1C DEB",
        "meta_object_id": "1999-025DDP",
        "meta_epoch": "2025-12-25T00:32:20.779008",
        "meta_mean_motion": 14.17738798,
        "meta_eccentricity": 0.01347576,
        "meta_inclination": 98.616,
        "meta_ra_of_asc_node": 104.8539,
        "meta_arg_of_pericenter": 32.9099,
        "meta_mean_anomaly": 328.0377,
        "meta_ephemeris_type": 0,
        "meta_classification_type": "U",
        "meta_norad_cat_id": 33630,
        "meta_element_set_no": 999,
        "meta_rev_at_epoch": 64585,
        "meta_bstar": 0.000328385,
        "meta_mean_motion_dot": 6.9e-06,
        "meta_mean_motion_ddot": 0,
        "tle_line1": "1 33630U 99025DDP 25359.02246272  .00000690  00000+0  32839-3 0  9991",
        "tle_line2": "2 33630  98.6160 104.8539 0134757  32.9099 328.0377 14.17738798645859"
      },
      "geometry": {
        "type": "Point",
        "coordinates": [
          -47.88453935133401,
          70.61819402862359
        ]
      }
    }
  ]
}